SL-3 R/B                
1 19046U 88032B   18055.90065168 -.00000405  00000-0 -25656-4 0  9994
2 19046  97.4967 100.0335 0036637 189.2796 170.7757 15.02387205610298
SL-16 R/B               
1 19120U 88039B   18055.70879446 -.00000016  00000-0  15481-4 0  9996
2 19120  71.0157 151.3546 0021376 167.0546 193.1132 14.19182707542213
COSMOS 1953             
1 19210U 88050A   18055.74614333  .00000285  00000-0  17698-4 0  9994
2 19210  82.5199 148.4840 0014672 117.4998 242.7723 15.05508582615836
SL-8 R/B                
1 19257U 88053B   18055.66065160  .00000047  00000-0  24639-4 0  9996
2 19257  74.0484 112.3862 0021645 298.9131 176.8528 14.37392137554761
COSMOS 1975             
1 19573U 88093A   18055.64155721 -.00000005  00000-0 -24601-5 0  9998
2 19573  82.5182 101.2008 0015227 152.8516 207.3510 15.04400100597767
SL-14 R/B               
1 19574U 88093B   18056.19922281  .00000078  00000-0  66400-5 0  9994
2 19574  82.5296 268.5084 0021781   6.5604 125.6773 14.83254773586951
SL-16 R/B               
1 19650U 88102B   18055.81032447  .00000115  00000-0  83008-4 0  9998
2 19650  70.9987 203.8944 0013807 167.0998 193.0481 14.15763936511471
INTERCOSMOS 24          
1 20261U 89080A   18056.50551962  .00000253  00000-0  74340-4 0  9991
2 20261  82.5972 205.8435 1203403 232.5106 116.0559 12.55959094297762
SL-14 R/B               
1 20262U 89080C   18055.94013727  .00000067  00000-0  12551-4 0  9990
2 20262  82.5892 254.2056 1237593  40.3971 328.2669 12.48885928293696
DELTA 1 R/B             
1 20323U 89089B   18055.72068667  .00000024  00000-0  15480-4 0  9993
2 20323  97.1233 326.9766 0072091   7.6806 352.5477 14.48243906491279
DELTA 2 R/B(1)          
1 20453U 90008B   18056.50435124  .00001165  00000-0  69678-4 0  9998
2 20453  35.6237 181.0904 0285915 116.4597 246.5743 14.83890048485843
COSMOS 2058             
1 20465U 90010A   18055.91451481  .00000267  00000-0  20444-4 0  9992
2 20465  82.4917   4.8347 0016006 158.0488 202.1424 14.97676990502058
SL-14 R/B               
1 20466U 90010B   18055.80811955  .00000051  00000-0  35841-5 0  9996
2 20466  82.5047 136.2459 0019438 225.7132 134.2488 14.81314490493835
SL-14 R/B               
1 20511U 90018B   18056.53206819  .00000088  00000-0  86066-5 0  9998
2 20511  82.5203  78.1861 0017627   7.5719 145.5251 14.79972354509530
HST                     
1 20580U 90037B   18055.69204564  .00000512  00000-0  20472-4 0  9996
2 20580  28.4693 138.7338 0002814  15.0972 118.2141 15.08985087328463
SL-16 R/B               
1 20625U 90046B   18055.93041837 -.00000248  00000-0 -10415-3 0  9998
2 20625  71.0018 338.6784 0011742  81.5305 278.7147 14.14628728433324
COSMOS 2084             
1 20663U 90055A   18056.49077190 -.00000010  00000-0  17254-4 0  9998
2 20663  62.7918 102.5647 0131669 114.8869 246.5978 14.91778309497594
SL-6 R/B(2)             
1 20666U 90055D   18056.09406627 -.00000052  00000-0  13701-4 0  9997
2 20666  62.7856  22.0774 0110000 134.8504 226.1593 14.92087220498919
SL-8 R/B                
1 20775U 90078B   18055.89439881  .00001057  00000-0  52258-4 0  9993
2 20775  82.9297 200.8530 0582885 283.1276  70.5516 14.31706870384920
SL-8 R/B                
1 21088U 91006B   18056.49519075 -.00000014  00000-0 -29415-4 0  9997
2 21088  82.9442 191.9226 0021807 333.8634  92.2760 13.77075060360469
OKEAN-3                 
1 21397U 91039A   18056.53803112  .00000254  00000-0  22011-4 0  9998
2 21397  82.5191 257.7247 0019353 108.5444 251.7881 14.92628354447574
COSMOS 2151             
1 21422U 91042A   18055.92415604  .00000127  00000-0  10033-4 0  9998
2 21422  82.5026   5.9214 0014493 164.3625 195.8045 14.91926708425106
SL-14 R/B               
1 21423U 91042B   18056.51012500  .00000059  00000-0  46915-5 0  9996
2 21423  82.4913  84.6932 0018669 137.1181 223.1492 14.79723769440045
ERS-1                   
1 21574U 91050A   18055.84308307  .00000004  00000-0  16056-4 0  9992
2 21574  98.4919   4.3969 0031876 281.4618  78.2990 14.37631490393881
ARIANE 40 R/B           
1 21610U 91050F   18055.75671226 -.00000023  00000-0  69301-5 0  9990
2 21610  98.5704 118.3952 0002066 262.3155 206.5988 14.40828318396489
INTERCOSMOS 25          
1 21819U 91086A   18055.84445165 -.00000002  00000-0 -11991-6 0  9992
2 21819  82.5772 271.3140 1518891 269.3154  73.4315 12.04782663142699
SL-14 R/B               
1 21820U 91086B   18056.37848503  .00000125  00000-0  16902-4 0  9995
2 21820  82.5657 329.1197 1577072 106.0257 271.9718 11.93363812136989
SL-8 R/B                
1 21876U 92008B   18055.73092706  .00000019  00000-0  34965-5 0  9998
2 21876  82.9252 289.5099 0035814  50.5447  25.8766 13.75620442305873
SL-8 R/B                
1 21938U 92020B   18055.81729747  .00000054  00000-0  40869-4 0  9990
2 21938  82.9331 172.9111 0028867 204.8557 264.5011 13.75267731297712
SL-16 R/B               
1 22220U 92076B   18055.94685975  .00000200  00000-0  12440-3 0  9990
2 22220  70.9975 247.1957 0014977 250.5563 212.2855 14.16426296306236
SL-16 R/B               
1 22285U 92093B   18055.95803971 -.00000282  00000-0 -12125-3 0  9991
2 22285  71.0221  42.0265 0001775 119.0160 241.1140 14.15020579298018
COSMOS 2228             
1 22286U 92094A   18055.79247063  .00000170  00000-0  15776-4 0  9999
2 22286  82.5217 135.8855 0021244   7.4161 352.7366 14.87907365360050
SL-16 R/B               
1 22566U 93016B   18055.94099129  .00000282  00000-0  17019-3 0  9995
2 22566  71.0054 256.3724 0008418 114.4250 245.7752 14.14957400287012
COSMOS 2242             
1 22626U 93024A   18055.82559405  .00000170  00000-0  15891-4 0  9999
2 22626  82.5245 163.6326 0018978   7.0966 353.0516 14.87772099343719
SL-16 R/B               
1 22803U 93059B   18056.05718294 -.00000216  00000-0 -83546-4 0  9998
2 22803  70.9894  76.5793 0017468 352.3388   7.7465 14.16787050264098
ARIANE 40 R/B           
1 22830U 93061H   18055.47276886 -.00000063  00000-0 -60851-5 0  9997
2 22830  98.8695  81.4402 0009867 271.4085  88.5967 14.31413663274084
COSMOS 2278             
1 23087U 94023A   18055.79784375 -.00000296  00000-0 -13124-3 0  9990
2 23087  71.0536 191.0075 0009699 205.0979 154.9673 14.13762133230193
SL-16 R/B               
1 23088U 94023B   18055.56444414 -.00000095  00000-0 -24365-4 0  9990
2 23088  70.9989 112.3544 0001135  58.9316 301.1918 14.14660906230967
SL-16 R/B               
1 23343U 94074B   18056.56791257 -.00000021  00000-0  45141-5 0  9995
2 23343  98.1209 100.7008 0006548 351.6745 131.2117 14.76724267254223
SL-16 R/B               
1 23405U 94077B   18055.40178677 -.00000243  00000-0 -10018-3 0  9994
2 23405  70.9836  45.1151 0005122 285.9195  74.1363 14.15199832201195
ERS-2                   
1 23560U 95021A   18055.76991726  .00001029  00000-0  49641-4 0  9999
2 23560  98.5503  87.2542 0004156 150.1591 209.9879 15.21511537213757
ARIANE 40+ R/B          
1 23561U 95021B   18055.94494414  .00000037  00000-0  27575-4 0  9992
2 23561  98.7962  68.0132 0006162 225.5344 191.3915 14.37859357197356
SL-16 R/B               
1 23705U 95058B   18055.87505635 -.00000233  00000-0 -95321-4 0  9996
2 23705  71.0207 218.8761 0014973 272.5104  87.4304 14.15111756152639
SL-16 R/B               
1 24298U 96051B   18055.90101451 -.00000173  00000-0 -67344-4 0  9997
2 24298  70.8396 249.4897 0016105 175.5801 184.5464 14.12464212107246
ORBVIEW 2 (SEASTAR)     
1 24883U 97037A   18055.87585276  .00000046  00000-0  32442-4 0  9997
2 24883  98.5520 166.3955 0003451  86.0458 274.1121 14.33438209 88107
SL-16 R/B               
1 25400U 98043G   18055.91536506 -.00000004  00000-0  16452-4 0  9996
2 25400  98.5215   1.4748 0008730 278.3792  81.6398 14.25429672 20844
SL-16 R/B               
1 25407U 98045B   18055.88113621  .00000228  00000-0  14035-3 0  9991
2 25407  71.0094 230.3983 0008308 196.8672 163.2176 14.15771406 11685
ISS (ZARYA)             
1 25544U 98067A   18055.95109271  .00002260  00000-0  41351-4 0  9991
2 25544  51.6417 218.2331 0003200 129.4624 344.6132 15.54146562101069
SL-8 R/B                
1 25723U 99022C   18055.89386585  .00006573  00000-0  91764-4 0  9994
2 25723  48.4144 256.0042 0009463 179.8781 180.2169 15.58049111 45537
CZ-4B R/B               
1 25732U 99025C   18055.92378931 -.00000003  00000-0  20791-4 0  9992
2 25732  98.9964  65.7872 0038405  92.2002 327.4095 14.17645145972349
OKEAN-O                 
1 25860U 99039A   18056.52758233  .00000056  00000-0  15641-4 0  9998
2 25860  98.2103  50.2091 0001758  77.1199 283.0206 14.76532719  1218
SL-16 R/B               
1 25861U 99039B   18055.95605361  .00000047  00000-0  13869-4 0  9998
2 25861  98.1398  34.4588 0015524 353.3166  69.7844 14.78463160  2985
TERRA                   
1 25994U 99068A   18056.18343968 -.00001607  00000-0 -34677-3 0  9999
2 25994  98.2091 132.6291 0001187  91.8420 268.2936 14.57101787967510
ENVISAT                 
1 27386U 02009A   18056.47053522 -.00000015  00000-0  87470-5 0  9993
2 27386  98.1990  95.7140 0001345  92.1455 267.9888 14.37915979837471
IDEFIX & ARIANE 42P R/B 
1 27422U 02021B   18054.48362524 -.00000029  00000-0  46358-5 0  9997
2 27422  98.2475  46.0524 0011634 207.0203 153.0376 14.29259836822572
AQUA                    
1 27424U 02022A   18055.87462977  .00000088  00000-0  29612-4 0  9994
2 27424  98.2321 358.7323 0002442  65.1611  12.4768 14.57102642841024
CZ-4B R/B               
1 27432U 02024C   18055.91680701 -.00000004  00000-0  21480-4 0  9991
2 27432  99.0222  36.3547 0051143  38.5998  14.0965 14.14059247814430
MIDORI II (ADEOS-II)    
1 27597U 02056A   18055.90944476  .00000039  00000-0  32820-4 0  9996
2 27597  98.4067  20.2113 0000815  27.4463 332.6762 14.27336087791473
H-2A R/B                
1 27601U 02056E   18055.82727836  .00000022  00000-0  23282-4 0  9996
2 27601  98.3434 119.4699 0071013 265.8841 206.4107 14.31825806793966
